"title","totalScore","reviewsCount","street","city","state","countryCode","website","phone","categoryName","url"
"頂湖山農園","4.6","197","No. 64號, Yangming Creek Walkway",,"Beitou District, Taipei City","TW",,"+886 2 2861 8570","Taiwanese restaurant","https://www.google.com/maps/search/?api=1&query=%E9%A0%82%E6%B9%96%E5%B1%B1%E8%BE%B2%E5%9C%92&query_place_id=ChIJjTVHSByyQjQR0lWw5s5V4bY"
"野菜屋熱炒","4.2","319","No. 55之17號, Yangming Creek Walkway",,"Beitou District, Taipei City","TW",,"+886 930 062 829","Taiwanese restaurant","https://www.google.com/maps/search/?api=1&query=%E9%87%8E%E8%8F%9C%E5%B1%8B%E7%86%B1%E7%82%92&query_place_id=ChIJsajtI_SxQjQRot0E9qi0NKU"
"Pique Nique","4.5","567","Lane 53, Section 3, Zhongyang N Rd, 1號1F-1",,"Beitou District, Taipei City","TW",,"+886 2 2895 1181","Restaurant","https://www.google.com/maps/search/?api=1&query=Pique%20Nique&query_place_id=ChIJaRAgia6vQjQRMfGNHE7kAII"
"陽明山竹子湖故鄉海芋農園-附設餐廳","4.5","3660","Yangming Creek Walkway, 海芋大道",,"Beitou District, Taipei City","TW",,"+886 2 2861 5736","Taiwanese restaurant","https://www.google.com/maps/search/?api=1&query=%E9%99%BD%E6%98%8E%E5%B1%B1%E7%AB%B9%E5%AD%90%E6%B9%96%E6%95%85%E9%84%89%E6%B5%B7%E8%8A%8B%E8%BE%B2%E5%9C%92-%E9%99%84%E8%A8%AD%E9%A4%90%E5%BB%B3&query_place_id=ChIJ2Q7C2PquQjQRzuQuQV7Nm9w"
"吉園葡花園野菜餐廳","4.1","1247","No. 33, Yangming Creek Walkway",,"Beitou District, Taipei City","TW","https://rink.cc/1x3u6","+886 2 2861 7246","Taiwanese restaurant","https://www.google.com/maps/search/?api=1&query=%E5%90%89%E5%9C%92%E8%91%A1%E8%8A%B1%E5%9C%92%E9%87%8E%E8%8F%9C%E9%A4%90%E5%BB%B3&query_place_id=ChIJ0S6SRvixQjQR9r1ORzkCiJA"
"Calla Lily","4.3","79",,,"Beitou District, Taipei City","TW","https://www.facebook.com/ha1688/","+886 972 768 909","Restaurant","https://www.google.com/maps/search/?api=1&query=Calla%20Lily&query_place_id=ChIJqwLEA_exQjQRe9eWoIIkHiI"
"Mr.Nick 花生捲冰淇淋","5","9","Yangming Creek Walkway, 33-5號海芋大道",,"Beitou District, Taipei City","TW","https://www.facebook.com/no.mane.ice2019/","+886 926 407 203","Ice cream shop","https://www.google.com/maps/search/?api=1&query=Mr.Nick%20%E8%8A%B1%E7%94%9F%E6%8D%B2%E5%86%B0%E6%B7%87%E6%B7%8B&query_place_id=ChIJGx_2c1exQjQR5cg06xf8ZCo"
"陽明山竹子湖杉木林餐廳","4.1","1194","No. 55-12號, Yangming Creek Walkway",,"Beitou District, Taipei City","TW","https://rink.cc/nbazs","+886 2 2861 7159","Taiwanese restaurant","https://www.google.com/maps/search/?api=1&query=%E9%99%BD%E6%98%8E%E5%B1%B1%E7%AB%B9%E5%AD%90%E6%B9%96%E6%9D%89%E6%9C%A8%E6%9E%97%E9%A4%90%E5%BB%B3&query_place_id=ChIJyT3L_fOxQjQRI_Rg0SIcMHM"
"竹子湖休閒中心","4.1","9","No. 55之3號, Yangming Creek Walkway",,"Beitou District, Taipei City","TW",,"+886 2 2861 2033","Deli","https://www.google.com/maps/search/?api=1&query=%E7%AB%B9%E5%AD%90%E6%B9%96%E4%BC%91%E9%96%92%E4%B8%AD%E5%BF%83&query_place_id=ChIJ4RVrAvSxQjQRktnMbZobhxA"
"Shan Shuei Siang Wild Vegetables","4.1","366","No. 33-5, Yangming Creek Walkway",,"Beitou District, Taipei City","TW","https://www.facebook.com/pages/%E7%AB%B9%E5%AD%90%E6%B9%96%E5%B1%B1%E6%B0%B4%E9%A6%99%E5%BA%AD%E5%9C%92%E9%87%8E%E8%8F%9C/271521312881451","+886 2 2861 8828","Taiwanese restaurant","https://www.google.com/maps/search/?api=1&query=Shan%20Shuei%20Siang%20Wild%20Vegetables&query_place_id=ChIJ0S6SRvixQjQRH2o-pTH43gQ"
"盛泉花園","4.7","59","Yangming Creek Walkway, 51號左側3公尺",,"Beitou District, Taipei City","TW","https://restaurant-105017.business.site/?utm_source=gmb&utm_medium=referral","+886 930 772 749","Coffee store","https://www.google.com/maps/search/?api=1&query=%E7%9B%9B%E6%B3%89%E8%8A%B1%E5%9C%92&query_place_id=ChIJf-qdf8CxQjQR4OIrCNEr-8E"
"湖田大樹下","4.6","83","台2甲線",,"Beitou District, Taipei City","TW",,"+886 2 2861 8789","Chinese restaurant","https://www.google.com/maps/search/?api=1&query=%E6%B9%96%E7%94%B0%E5%A4%A7%E6%A8%B9%E4%B8%8B&query_place_id=ChIJkwJWe6qzQjQRVu-uR8P01js"
"青菜園","4.3","4586","Yangming Creek Walkway, 55之11號往中正山方向",,"Beitou District, Taipei City","TW","https://www.facebook.com/102099618995769/","+886 2 2861 9165","Taiwanese restaurant","https://www.google.com/maps/search/?api=1&query=%E9%9D%92%E8%8F%9C%E5%9C%92&query_place_id=ChIJH0ado_axQjQRa2QHjI-yODI"
"竹子湖炒青菜","4.1","537","No. 55-3, Yangming Creek Walkway",,"Beitou District, Taipei City","TW","https://www.facebook.com/ZhuZiHuChaoQingCaiXiuXianZhongXin","+886 2 2862 8775","Restaurant","https://www.google.com/maps/search/?api=1&query=%E7%AB%B9%E5%AD%90%E6%B9%96%E7%82%92%E9%9D%92%E8%8F%9C&query_place_id=ChIJ4RVrAvSxQjQRYq9jQlbqL-8"
"Man Tou Ge steamed bread","4.3","55","No. 51-1號, Yangming Creek Walkway",,"Beitou District, Taipei City","TW","https://www.facebook.com/%E9%A5%85%E9%A0%AD%E5%93%A5-%E6%89%8B%E5%B7%A5%E9%A5%85%E9%A0%AD-1643080219298459/","+886 986 568 528","Restaurant","https://www.google.com/maps/search/?api=1&query=Man%20Tou%20Ge%20steamed%20bread&query_place_id=ChIJHVnHHvexQjQRGvL_iLhcPAg"
"冠宸食館","4.2","1979","No. 67, Yangming Creek Walkway",,"Beitou District, Taipei City","TW",,"+886 2 2862 6408","Restaurant","https://www.google.com/maps/search/?api=1&query=%E5%86%A0%E5%AE%B8%E9%A3%9F%E9%A4%A8&query_place_id=ChIJM1CkBkuzQjQRbDJa9WoR8yo"
"3 Hao Chang Restaurant","4.7","36","No. 37之5號, Yangming Creek Walkway",,"Beitou District, Taipei City","TW",,"+886 978 271 793","Restaurant","https://www.google.com/maps/search/?api=1&query=3%20Hao%20Chang%20Restaurant&query_place_id=ChIJl-gibvexQjQRNtlx-zDpzLk"
"竹子湖 山中園 野菜餐廳","4.1","1080","No. 33-7, Yangming Creek Walkway",,"Beitou District, Taipei City","TW","https://www.leeleelin.com/2021/03/Shanzhongyan-Alocasia-Terraces.html","+886 2 2861 8211","Restaurant","https://www.google.com/maps/search/?api=1&query=%E7%AB%B9%E5%AD%90%E6%B9%96%20%E5%B1%B1%E4%B8%AD%E5%9C%92%20%E9%87%8E%E8%8F%9C%E9%A4%90%E5%BB%B3&query_place_id=ChIJ_bBK1vmxQjQR2dI34C4JLeQ"
"""2025臺灣崛起-看不見的竹仔湖","4.8","16","No. 51號, Yangming Creek Walkway",,"Beitou District, Taipei City","TW","https://www.facebook.com/profile.php?id=61557128745252&mibextid=LQQJ4d","+886 986 888 230","Scenic spot","https://www.google.com/maps/search/?api=1&query=%222025%E8%87%BA%E7%81%A3%E5%B4%9B%E8%B5%B7-%E7%9C%8B%E4%B8%8D%E8%A6%8B%E7%9A%84%E7%AB%B9%E4%BB%94%E6%B9%96&query_place_id=ChIJkwi0jAOtQjQRMZRmKTey6OU"
"原鄉私房餐館","4.6","332","No. 57, Yangming Creek Walkway",,"Beitou District, Taipei City","TW","https://amy0313.pixnet.net/blog/post/46620945","+886 932 257 701","Restaurant","https://www.google.com/maps/search/?api=1&query=%E5%8E%9F%E9%84%89%E7%A7%81%E6%88%BF%E9%A4%90%E9%A4%A8&query_place_id=ChIJWRp2LfSxQjQRCUmEqSD8Gqo"
"綠山谷海芋園餐廳","4.2","357","No. 67之8號, Yangming Creek Walkway",,"Beitou District, Taipei City","TW","https://www.facebook.com/%E9%99%BD%E6%98%8E%E5%B1%B1%E7%AB%B9%E5%AD%90%E6%B9%96%E7%B6%A0%E5%B1%B1%E8%B0%B7-204812849647294/","+886 2 2862 2969","Restaurant","https://www.google.com/maps/search/?api=1&query=%E7%B6%A0%E5%B1%B1%E8%B0%B7%E6%B5%B7%E8%8A%8B%E5%9C%92%E9%A4%90%E5%BB%B3&query_place_id=ChIJuT8IER-yQjQRVJSCPadiCTY"
"竹湖小吃","4.5","37",,,"Beitou District, Taipei City","TW",,"+886 2 2861 0155","Taiwanese restaurant","https://www.google.com/maps/search/?api=1&query=%E7%AB%B9%E6%B9%96%E5%B0%8F%E5%90%83&query_place_id=ChIJ81kpp_axQjQR8C7DPTFLoGM"
"Hua Zhi You Restaurant Farm","4.5","380","No. 79之1號, Yangming Creek Walkway",,"Beitou District, Taipei City","TW","http://www.hzy-farm.com.tw/","+886 932 171 150","Mandarin restaurant","https://www.google.com/maps/search/?api=1&query=Hua%20Zhi%20You%20Restaurant%20Farm&query_place_id=ChIJwX27lTiyQjQR2lLc9iEBZNw"
"初鹿咖啡","4.8","237","No. 33-3號, Yangming Creek Walkway",,"Beitou District, Taipei City","TW",,"+886 2 2861 5255","Coffee shop","https://www.google.com/maps/search/?api=1&query=%E5%88%9D%E9%B9%BF%E5%92%96%E5%95%A1&query_place_id=ChIJ3Y9gxqWxQjQRUR4R73egQp4"
"黑木屋","4.3","591","No. 67-10號, Yangming Creek Walkway",,"Beitou District, Taipei City","TW",,"+886 2 2862 1133","Restaurant","https://www.google.com/maps/search/?api=1&query=%E9%BB%91%E6%9C%A8%E5%B1%8B&query_place_id=ChIJbT4sU_axQjQRvonMiYl_yLw"
"發現生活園藝休閒花園","4.4","320","No. 35-1, Yangming Creek Walkway",,"Beitou District, Taipei City","TW","http://www.8898go.com/fashia/","+886 2 2862 7898","Restaurant","https://www.google.com/maps/search/?api=1&query=%E7%99%BC%E7%8F%BE%E7%94%9F%E6%B4%BB%E5%9C%92%E8%97%9D%E4%BC%91%E9%96%92%E8%8A%B1%E5%9C%92&query_place_id=ChIJ_aKvY_exQjQRfGKlao5sMB0"
"竹湖土雞城","4.4","230","No. 55-1號, Yangming Creek Walkway",,"Beitou District, Taipei City","TW","https://www.facebook.com/pages/%E7%AB%B9%E6%B9%96%E5%9C%9F%E9%9B%9E%E5%9F%8E/111187268965292","+886 2 2861 0155","Taiwanese restaurant","https://www.google.com/maps/search/?api=1&query=%E7%AB%B9%E6%B9%96%E5%9C%9F%E9%9B%9E%E5%9F%8E&query_place_id=ChIJNQpBn_axQjQRdzXtKNVok6M"
"名陽匍休閒農莊minyangpu","4.3","694","竹子湖路(用google map搜尋名陽匍休閒農莊即可",,"Beitou District, Taipei City","TW","https://www.facebook.com/minyangpu","+886 935 913 239","Cafe","https://www.google.com/maps/search/?api=1&query=%E5%90%8D%E9%99%BD%E5%8C%8D%E4%BC%91%E9%96%92%E8%BE%B2%E8%8E%8Aminyangpu&query_place_id=ChIJQXQ1BR6yQjQRE95wOgHE2bM"
"Stonehouse63","4.3","918","No. 63號, Yangming Creek Walkway",,"Beitou District, Taipei City","TW","http://www.facebook.com/63stonehouse","+886 900 632 108","Taiwanese restaurant","https://www.google.com/maps/search/?api=1&query=Stonehouse63&query_place_id=ChIJkRC_j_WxQjQRkdDh4L8Vqb0"
"山園野菜美食館","4","1337","No. 55-12號, Yangming Creek Walkway",,"Beitou District, Taipei City","TW",,"+886 2 2861 1558","Chinese restaurant","https://www.google.com/maps/search/?api=1&query=%E5%B1%B1%E5%9C%92%E9%87%8E%E8%8F%9C%E7%BE%8E%E9%A3%9F%E9%A4%A8&query_place_id=ChIJfS4hBvSxQjQRVlo54oaAfQ4"
"小丘咖啡屋","4.4","306","Yangming Creek Walkway, 55-13號",,"Beitou District, Taipei City","TW",,"+886 2 2862 5999","Cafe","https://www.google.com/maps/search/?api=1&query=%E5%B0%8F%E4%B8%98%E5%92%96%E5%95%A1%E5%B1%8B&query_place_id=ChIJBxMSBfSxQjQRLkf9Gw6QC70"
"Triple Cafe","4.1","2557","No. 118號, Section 5, Chenggong Rd",,"Neihu District, Taipei City","TW","https://www.facebook.com/triplecafe2016/","+886 2 8791 7620","Restaurant","https://www.google.com/maps/search/?api=1&query=Triple%20Cafe&query_place_id=ChIJuSpxMsCsQjQRKRZLC-9NCmQ"
"河南手工扯麵","4.2","574","Section 4, Zhongyang N Rd, 392號淡水線捷運忠義站出口左轉步行約3分鐘",,"Beitou District, Taipei City","TW",,"+886 2 2891 8298","Noodle shop","https://www.google.com/maps/search/?api=1&query=%E6%B2%B3%E5%8D%97%E6%89%8B%E5%B7%A5%E6%89%AF%E9%BA%B5&query_place_id=ChIJL2O5Z1KuQjQR53UIuXnHYB8"
"一事製菓 (無內用座位)","4.4","643","No. 3號, Alley 27, Lane 577, Section 4, Zhongyang N Rd",,"Beitou District, Taipei City","TW","https://liteshop.tw/p/cp6NNufF5kK5/u/cnR1NV","+886 2 2898 8298","Dessert shop","https://www.google.com/maps/search/?api=1&query=%E4%B8%80%E4%BA%8B%E8%A3%BD%E8%8F%93%20(%E7%84%A1%E5%85%A7%E7%94%A8%E5%BA%A7%E4%BD%8D)&query_place_id=ChIJjWEPsIauQjQRPBZM_6R6B7M"
"找午倉Brunch","4.3","839","Lane 296, Section 3, Dadu Rd, 42號1樓",,"Beitou District, Taipei City","TW","https://liff.line.me/1645278921-kWRPP32q/?accountId=907qiuyq",,"Brunch restaurant","https://www.google.com/maps/search/?api=1&query=%E6%89%BE%E5%8D%88%E5%80%89Brunch&query_place_id=ChIJlVAfvnKvQjQRptho33uDf_4"
"Su Cuo Beef Noodle Restaurant","4.1","105","No. 140號, Section 4, Zhongyang N Rd",,"Beitou District, Taipei City","TW",,"+886 2 2896 1215","Chinese noodle restaurant","https://www.google.com/maps/search/?api=1&query=Su%20Cuo%20Beef%20Noodle%20Restaurant&query_place_id=ChIJV85ckiCvQjQRL_bjMR2RcAw"
"STARBUCKS Guandu Shop","4.2","1023","No. 45號, Lane 296, Section 3, Dadu Rd",,"Beitou District, Taipei City","TW","http://www.starbucks.com.tw/home/index.jspx","+886 2 2894 5123","Coffee shop","https://www.google.com/maps/search/?api=1&query=STARBUCKS%20Guandu%20Shop&query_place_id=ChIJ4W2klXKvQjQROVWqIYuP950"
"1996 COFFEE 台北深夜咖啡廳","4.4","173","No. 19號, Ligong St",,"Beitou District, Taipei City","TW","https://instagram.com/1996_coffee?igshid=YmMyMTA2M2Y=","+886 2 2898 5289","Coffee shop","https://www.google.com/maps/search/?api=1&query=1996%20COFFEE%20%E5%8F%B0%E5%8C%97%E6%B7%B1%E5%A4%9C%E5%92%96%E5%95%A1%E5%BB%B3&query_place_id=ChIJ4cQJ4KivQjQR1Tvuk-F3hxo"
"NOMU CAFEコーヒーとカヌレ(休息日詳見IG)","4.7","14","Lane 296, Section 3, Dadu Rd, 46號1F",,"Beitou District, Taipei City","TW","https://instagram.com/no.mu.cafe?igshid=NjNlMDhmYTc=","+886 918 111 954","Coffee store","https://www.google.com/maps/search/?api=1&query=NOMU%20CAFE%E3%82%B3%E3%83%BC%E3%83%92%E3%83%BC%E3%81%A8%E3%82%AB%E3%83%8C%E3%83%AC(%E4%BC%91%E6%81%AF%E6%97%A5%E8%A9%B3%E8%A6%8BIG)&query_place_id=ChIJyREyPtOvQjQRCcfc_HclVlg"
"Luguo Caf'e","4.6","361","No. 39號, Lane 296, Section 3, Dadu Rd",,"Beitou District, Taipei City","TW","https://www.luguocafe.com/","+886 2 2891 5990","Cafe","https://www.google.com/maps/search/?api=1&query=Luguo%20Caf'e&query_place_id=ChIJwRJYl3KvQjQRctuUr9QrwQw"
"CITY CAFE在城市探索城事（自助咖啡機）","5","1","Ln 527, Daye Rd, 88號B1",,"Beitou District, Taipei City","TW",,,"Coffee shop","https://www.google.com/maps/search/?api=1&query=CITY%20CAFE%E5%9C%A8%E5%9F%8E%E5%B8%82%E6%8E%A2%E7%B4%A2%E5%9F%8E%E4%BA%8B%EF%BC%88%E8%87%AA%E5%8A%A9%E5%92%96%E5%95%A1%E6%A9%9F%EF%BC%89&query_place_id=ChIJB4AwCACvQjQRrMHGlkOObzQ"
"Heritage Bakery & Cafe","4.4","2216","No. 73之2號, Section 1, Hankou St",,"Zhongzheng District, Taipei City","TW","http://www.heritage.com.tw/","+886 2 2311 1079","Cafe","https://www.google.com/maps/search/?api=1&query=Heritage%20Bakery%20%26%20Cafe&query_place_id=ChIJy2EnjQypQjQR0YFRVGE5z8s"
"Modism Café 摩德年代 士林店","4.6","403","No. 29號, Lane 235, Zhongzheng Rd",,"Shilin District, Taipei City","TW","https://www.facebook.com/Modism.Au.Bread/","+886 2 2883 7012","Cafe","https://www.google.com/maps/search/?api=1&query=Modism%20Caf%C3%A9%20%E6%91%A9%E5%BE%B7%E5%B9%B4%E4%BB%A3%20%E5%A3%AB%E6%9E%97%E5%BA%97&query_place_id=ChIJn4mze4mvQjQRDe7XJaf7Ki0"
"Weiß Café","4.6","249","No. 3號, Lane 63, Section 7, Zhongshan N Rd",,"Shilin District, Taipei City","TW","https://www.facebook.com/weiss.fluegel.tw","+886 2 2876 5632","Coffee shop","https://www.google.com/maps/search/?api=1&query=Wei%C3%9F%20Caf%C3%A9&query_place_id=ChIJvb09QqyvQjQRhedAPFo6MAE"
"烘 HOMEBAKERY & CAFÉ","4.7","109","Tianmu W Rd, 65-3號1樓",,"Shilin District, Taipei City","TW",,"+886 2 2874 6656","Bakery","https://www.google.com/maps/search/?api=1&query=%E7%83%98%20HOMEBAKERY%20%26%20CAF%C3%89&query_place_id=ChIJ0RjVLN2vQjQRthRfBWKoFqg"
"達文西廚房DaVinci's Kitchen","4.4","309","No. 1號, Xueyuan Rd",,"Beitou District, Taipei City","TW",,"+886 2 2894 0540","Restaurant","https://www.google.com/maps/search/?api=1&query=%E9%81%94%E6%96%87%E8%A5%BF%E5%BB%9A%E6%88%BFDaVinci's%20Kitchen&query_place_id=ChIJiaA1zQqvQjQRrGJSdIAa2A4"
"雪花咖啡（原Living Cafe.69）","4.9","85","Ziqiang Rd, 50-2號1樓",,"Tamsui District, New Taipei City","TW","https://www.facebook.com/Living-cafe69-%E9%99%B8%E7%8E%96%E7%94%9F%E6%B4%BB%E5%92%96%E5%95%A1%E9%A4%A8-%E9%97%9C%E6%B8%A1%E5%92%96%E5%95%A1%E5%BB%B3-101982125153863","+886 922 435 895","Cafe","https://www.google.com/maps/search/?api=1&query=%E9%9B%AA%E8%8A%B1%E5%92%96%E5%95%A1%EF%BC%88%E5%8E%9FLiving%20Cafe.69%EF%BC%89&query_place_id=ChIJ_-065R-vQjQRoUqFIWnhKW0"
"Toscana Café 托斯卡尼咖啡","4.5","92","No. 1號, Lane 80, Ligong St",,"Beitou District, Taipei City","TW","https://www.facebook.com/toscanacafe68/","+886 2 2898 5456","Cafe","https://www.google.com/maps/search/?api=1&query=Toscana%20Caf%C3%A9%20%E6%89%98%E6%96%AF%E5%8D%A1%E5%B0%BC%E5%92%96%E5%95%A1&query_place_id=ChIJi5bMYlKuQjQRfjvPUwafSQM"
"Luguo Cafe / Z Space","4.5","147","Xueyuan Rd, 1號北藝大校園內-關渡美術館2樓 1號 二樓, 關渡美術館",,"Beitou District, Taipei City","TW","https://www.facebook.com/Luguocafe.Zspace/","+886 2 2891 2990","Coffee shop","https://www.google.com/maps/search/?api=1&query=Luguo%20Cafe%20%2F%20Z%20Space&query_place_id=ChIJ1-Osh6CvQjQRE5DbEVM_GGk"
"MeJA cafe","4.6","225","No. 21號, Lane 2, Guangming Rd",,"Beitou District, Taipei City","TW","https://instagram.com/meja_221?utm_medium=copy_link","+886 2 2897 1212","Cafe","https://www.google.com/maps/search/?api=1&query=MeJA%20cafe&query_place_id=ChIJy7z1FYWvQjQR9cjUzhxiTs0"
"櫻山小吃店","4.3","16","No. 9-6號, Section 2, Hushan Rd",,"Beitou District, Taipei City","TW",,"+886 976 327 378","Taiwanese restaurant","https://www.google.com/maps/search/?api=1&query=%E6%AB%BB%E5%B1%B1%E5%B0%8F%E5%90%83%E5%BA%97&query_place_id=ChIJH6eMKYitQjQR7habeMMEJIM"
"嶼食咖啡-竹子湖店","4.5","4","Yangming Creek Walkway, 1-20號號號B1",,"Beitou District, Taipei City","TW",,,"Coffee shop","https://www.google.com/maps/search/?api=1&query=%E5%B6%BC%E9%A3%9F%E5%92%96%E5%95%A1-%E7%AB%B9%E5%AD%90%E6%B9%96%E5%BA%97&query_place_id=ChIJK_7ISACtQjQRV24HOYwCFUQ"
"山上聊（假日無訂位）","4.2","878","Yangming Creek Walkway, 3-17號號",,"Beitou District, Taipei City","TW","https://www.facebook.com/CafeFrontiere/","+886 2 2861 5766","Cafe","https://www.google.com/maps/search/?api=1&query=%E5%B1%B1%E4%B8%8A%E8%81%8A%EF%BC%88%E5%81%87%E6%97%A5%E7%84%A1%E8%A8%82%E4%BD%8D%EF%BC%89&query_place_id=ChIJWWdfLgeyQjQRBT1YpcUUIgk"
"玉瀧谷野菜料理","4.1","450","No. 8之16號, Yangming Creek Walkway",,"Beitou District, Taipei City","TW","https://www.businesstoday.com.tw/article/category/80730/post/202001230005/%E9%84%95%E9%87%8E%E7%9A%84%E7%B1%B3%E5%85%B6%E6%9E%97%E9%A4%90%EF%BC%81%E8%AC%9D%E9%87%91%E6%B2%B3%EF%BC%9A%E9%9A%B1%E8%97%8F%E5%9C%A8%E7%AB%B9%E5%AD%90%E6%B9%96%E7%9A%84%E9%87%8E%E8%8F%9C%E7%BE%8E%E5%91%B3","+886 2 2861 5430","Country food restaurant","https://www.google.com/maps/search/?api=1&query=%E7%8E%89%E7%80%A7%E8%B0%B7%E9%87%8E%E8%8F%9C%E6%96%99%E7%90%86&query_place_id=ChIJ2SYZgQayQjQRbE_3Jjh5taw"
"霖銘園小吃店","5","1","No. 9號, Section 2, Hushan Rd",,"Beitou District, Taipei City","TW",,,"Snack bar","https://www.google.com/maps/search/?api=1&query=%E9%9C%96%E9%8A%98%E5%9C%92%E5%B0%8F%E5%90%83%E5%BA%97&query_place_id=ChIJP1jyPwCtQjQRtWyvVEeC15Q"
"陽明山悠閒居","4.3","118","No. 71號, Zhongxing Rd",,"Beitou District, Taipei City","TW",,"+886 2 2861 3555","Restaurant","https://www.google.com/maps/search/?api=1&query=%E9%99%BD%E6%98%8E%E5%B1%B1%E6%82%A0%E9%96%92%E5%B1%85&query_place_id=ChIJ29TfAQCyQjQRGuC_O4q53Ro"
"花妍花語COFFEE","4.7","58","No. 38號, Section 2, Hushan Rd",,"Beitou District, Taipei City","TW",,"+886 961 051 789","Coffee shop","https://www.google.com/maps/search/?api=1&query=%E8%8A%B1%E5%A6%8D%E8%8A%B1%E8%AA%9ECOFFEE&query_place_id=ChIJe7QhSfmtQjQRTWywEXeL3wM"
"天氣好的話","4.7","82","No. 71號, Zhongxing Rd",,"Beitou District, Taipei City","TW","https://www.instagram.com/goodweather.yms/","+886 921 856 541","Coffee shop","https://www.google.com/maps/search/?api=1&query=%E5%A4%A9%E6%B0%A3%E5%A5%BD%E7%9A%84%E8%A9%B1&query_place_id=ChIJQSbEaJKxQjQRYxBFzm5AIvE"
"小花老闆Coffee Stand","4.9","66","No. 5號, Section 2, Hushan Rd",,"Beitou District, Taipei City","TW","https://www.facebook.com/bosshua0525/",,"Cafe","https://www.google.com/maps/search/?api=1&query=%E5%B0%8F%E8%8A%B1%E8%80%81%E9%97%86Coffee%20Stand&query_place_id=ChIJSQsoM_yvQjQRiqD3hHCnyK8"
"無眠workshop (無訂位服務) 最後點餐時間為打烊前一小時","4.4","218","No. 22號, Fuxing 4th Rd",,"Beitou District, Taipei City","TW","https://www.facebook.com/sleeplessworkshop/?modal=admin_todo_tour","+886 2 2894 0720","Restaurant","https://www.google.com/maps/search/?api=1&query=%E7%84%A1%E7%9C%A0workshop%20(%E7%84%A1%E8%A8%82%E4%BD%8D%E6%9C%8D%E5%8B%99)%20%E6%9C%80%E5%BE%8C%E9%BB%9E%E9%A4%90%E6%99%82%E9%96%93%E7%82%BA%E6%89%93%E7%83%8A%E5%89%8D%E4%B8%80%E5%B0%8F%E6%99%82&query_place_id=ChIJU7xvdTmvQjQRSVdo1BZZYMc"
"LA JOIE CAFE","4.5","26","No. 312號, Danan Rd",,"Shilin District, Taipei City","TW","https://www.facebook.com/lajoietaipei","+886 2 2882 5889","Coffee store","https://www.google.com/maps/search/?api=1&query=LA%20JOIE%20CAFE&query_place_id=ChIJI0f88OevQjQRedxeOgJZtCc"
"Dine in cafe 咖啡廳｜早午餐｜義大利麵｜燉飯｜甜點","4.6","712","Lane 36, Section 2, Zhongshan N Rd, 11號1樓",,"Zhongshan District, Taipei City","TW","http://www.facebook.com/dineincafe","+886 2 2521 9586","Coffee shop","https://www.google.com/maps/search/?api=1&query=Dine%20in%20cafe%20%E5%92%96%E5%95%A1%E5%BB%B3%EF%BD%9C%E6%97%A9%E5%8D%88%E9%A4%90%EF%BD%9C%E7%BE%A9%E5%A4%A7%E5%88%A9%E9%BA%B5%EF%BD%9C%E7%87%89%E9%A3%AF%EF%BD%9C%E7%94%9C%E9%BB%9E&query_place_id=ChIJp0JDQmmpQjQR7wjch6kWbC4"
"TankQ Cafe & Bar","4.6","4858","No. 3-2號, Lane 90, Songjiang Rd",,"Zhongshan District, Taipei City","TW","https://www.facebook.com/TANKQ.COFFEE","+886 2 2521 9930","New American restaurant","https://www.google.com/maps/search/?api=1&query=TankQ%20Cafe%20%26%20Bar&query_place_id=ChIJM8BvRWGpQjQR8bRf97kUcyk"
"Twos Brunch Cafe","4.2","601","No. 21號, Lane 235, Zhongzheng Rd",,"Shilin District, Taipei City","TW","https://www.facebook.com/TwosBrunchCafe/","+886 2 2883 0345","Brunch restaurant","https://www.google.com/maps/search/?api=1&query=Twos%20Brunch%20Cafe&query_place_id=ChIJCRo5T6OuQjQReycCRWL9QzM"
"(Flowers Taiwan) R9 Café","4.2","5420","No. 13, Lane 41, Chifeng St",,"Datong District, Taipei City","TW",,"+886 2 2559 3159","Cafe","https://www.google.com/maps/search/?api=1&query=(Flowers%20Taiwan)%20R9%20Caf%C3%A9&query_place_id=ChIJ57Tqe2mpQjQRYJHQgz16IVw"
"Together Cafe 士林","4.7","336","No. 302號, Danan Rd",,"Shilin District, Taipei City","TW","https://www.facebook.com/TogetherCafe40","+886 2 2882 5168","Restaurant","https://www.google.com/maps/search/?api=1&query=Together%20Cafe%20%E5%A3%AB%E6%9E%97&query_place_id=ChIJgRqoY8KvQjQRCC2Eh_QOz94"
"ACME｜Cafe Bar & Restaurant","4.1","3370","Jiantan Rd, 1號7樓",,"Shilin District, Taipei City","TW","https://acmetaipei.com/zh/pages/place","+886 2 6617 7575","Cafe","https://www.google.com/maps/search/?api=1&query=ACME%EF%BD%9CCafe%20Bar%20%26%20Restaurant&query_place_id=ChIJw-mPDQmpQjQRw5KgXJsem1Q"
"Kahu Craft Beer Garden","4.5","290","No. 103-1, Wenquan Rd",,"Beitou District, Taipei City","TW","https://www.facebook.com/Kahurangi-Caf%C3%A9-1936803883224250/","+886 903 432 639","Bar","https://www.google.com/maps/search/?api=1&query=Kahu%20Craft%20Beer%20Garden&query_place_id=ChIJg4CSAUOuQjQRfGncO1TYj2E"
"Gourmedise Fusion Cafe","4.2","109","No. 3, Zhongshan Rd",,"Beitou District, Taipei City","TW","http://www.tyq.com.tw/restaurants/gourmedise-fusion-cafe/","+886 2 2898 8661","Restaurant","https://www.google.com/maps/search/?api=1&query=Gourmedise%20Fusion%20Cafe&query_place_id=ChIJ8R3JH0WuQjQR_5ttGeLOWTs"
"Tea Colors Cafe","4.3","202","No. 28-1號, Zhongshan Rd",,"Beitou District, Taipei City","TW",,"+886 2 2895 1360","Taiwanese restaurant","https://www.google.com/maps/search/?api=1&query=Tea%20Colors%20Cafe&query_place_id=ChIJH87WoEOuQjQRJKe8BcczcQE"
"拾米屋 SheMe house","4.2","1314","Datong St, 153號一號倉庫",,"Beitou District, Taipei City","TW","http://www.sheme.tw/","+886 2 2892 2800","Coffee shop","https://www.google.com/maps/search/?api=1&query=%E6%8B%BE%E7%B1%B3%E5%B1%8B%20SheMe%20house&query_place_id=ChIJxYT9xlGuQjQRcOe6AcacQoI"
"Co Co","4","247","No. 280號, Zhonghe St",,"Beitou District, Taipei City","TW",,"+886 2 2893 3109","Ice cream and drink shop","https://www.google.com/maps/search/?api=1&query=Co%20Co&query_place_id=ChIJ98e2Hk-uQjQRONMUaasrAPc"
"HOUSE CAFE","4.5","517","Dehui St, 4號1樓",,"Zhongshan District, Taipei City","TW","https://www.facebook.com/HOUSE-CAFE-347111199333240/?modal=admin_todo_tour","+886 2 2599 7058","Cafe","https://www.google.com/maps/search/?api=1&query=HOUSE%20CAFE&query_place_id=ChIJGeLR8bapQjQRWgNzDA7vBvA"
"北投飢廠","4.5","176","中央北路三段17-1號",,"Beitou District, Taipei City","TW","https://www.facebook.com/%E5%8C%97%E6%8A%95%E9%A3%A2%E5%BB%A0%E6%97%A9%E5%8D%88%E9%A4%90%E4%B8%AD%E8%A5%BF%E5%BC%8F%E7%B0%A1%E9%A4%90-109367787565858/","+886 2 2898 6400","Restaurant","https://www.google.com/maps/search/?api=1&query=%E5%8C%97%E6%8A%95%E9%A3%A2%E5%BB%A0&query_place_id=ChIJf5b9IeOvQjQRXyHwj63mp6A"
"相思起小館","4.1","109","No. 495號, Section 4, Zhongyang N Rd",,"Beitou District, Taipei City","TW","https://www.facebook.com/%E7%9B%B8%E6%80%9D%E8%B5%B7%E5%B0%8F%E9%A4%A8-136142527158858/","+886 2 2894 2916","Taiwanese restaurant","https://www.google.com/maps/search/?api=1&query=%E7%9B%B8%E6%80%9D%E8%B5%B7%E5%B0%8F%E9%A4%A8&query_place_id=ChIJb4TLv3KvQjQR880suB_3bBY"
"Baking Kitchen","5","9","No. 328號, Section 4, Zhongyang N Rd",,"Beitou District, Taipei City","TW","https://www.facebook.com/328baking/","+886 905 669 736","Bakery","https://www.google.com/maps/search/?api=1&query=Baking%20Kitchen&query_place_id=ChIJHafrTQqvQjQRI7BLSMxeGTs"
"Miau Ban Garden Restaurant","4.2","3196","No. 56-7, Yangming Creek Walkway",,"Beitou District, Taipei City","TW","https://www.8898go.com/miauban/","+886 2 2861 5419","Chinese restaurant","https://www.google.com/maps/search/?api=1&query=Miau%20Ban%20Garden%20Restaurant&query_place_id=ChIJiYamzvWxQjQR4grX7xDjjN8"
"迪生國際有限公司","4.6","16","中央北路三段63號1樓",,"Beitou District, Taipei City","TW","http://www.disn.com.tw/","+886 2 2895 1239","Coffee wholesaler","https://www.google.com/maps/search/?api=1&query=%E8%BF%AA%E7%94%9F%E5%9C%8B%E9%9A%9B%E6%9C%89%E9%99%90%E5%85%AC%E5%8F%B8&query_place_id=ChIJ70xobOKrQjQRmDyAekoshZw"
"Kuandu Museum of Fine Arts","4.4","1004","No. 1, Xueyuan Rd",,"Beitou District, Taipei City","TW","http://kdmofa.tnua.edu.tw/","+886 2 2896 1000","Art museum","https://www.google.com/maps/search/?api=1&query=Kuandu%20Museum%20of%20Fine%20Arts&query_place_id=ChIJTeIZgaCvQjQRlMvYvVAE6WE"
"Dandelion","4.9","224","Lide Rd, 8號1樓",,"Beitou District, Taipei City","TW",,"+886 2 2891 9281","Vegetarian restaurant","https://www.google.com/maps/search/?api=1&query=Dandelion&query_place_id=ChIJfVmN1mqvQjQRYQmHg9eAUno"
"COFFEE LAW 華碩店 (公司大樓內，未對外)","4.5","2","No. 15號, Lide Rd",,"Beitou District, Taipei City","TW",,,"Coffee shop","https://www.google.com/maps/search/?api=1&query=COFFEE%20LAW%20%E8%8F%AF%E7%A2%A9%E5%BA%97%20(%E5%85%AC%E5%8F%B8%E5%A4%A7%E6%A8%93%E5%85%A7%EF%BC%8C%E6%9C%AA%E5%B0%8D%E5%A4%96)&query_place_id=ChIJOzauKuuvQjQRNfmEj9lO75k"
"卓斐斯COFFEE","4.8","5","No. 125號, Lide Rd",,"Beitou District, Taipei City","TW",,,"Coffee shop","https://www.google.com/maps/search/?api=1&query=%E5%8D%93%E6%96%90%E6%96%AFCOFFEE&query_place_id=ChIJT-zXxMyvQjQRiSx4HjO6-eE"
"阿義複合式早餐","5","7","No. 164號, Xinxing Rd",,"Beitou District, Taipei City","TW",,"+886 2 898 3950","Breakfast restaurant","https://www.google.com/maps/search/?api=1&query=%E9%98%BF%E7%BE%A9%E8%A4%87%E5%90%88%E5%BC%8F%E6%97%A9%E9%A4%90&query_place_id=ChIJI3WXwa2vQjQROM-x35kRWss"
"尚品豆漿-飯糰、手工蛋餅","4.8","8","No. 166號, Xinxing Rd",,"Beitou District, Taipei City","TW",,"+886 2 892 9482","Restaurant","https://www.google.com/maps/search/?api=1&query=%E5%B0%9A%E5%93%81%E8%B1%86%E6%BC%BF-%E9%A3%AF%E7%B3%B0%E3%80%81%E6%89%8B%E5%B7%A5%E8%9B%8B%E9%A4%85&query_place_id=ChIJWwyfwa2vQjQRWMobTzNWp24"
"有時Cafe-Between times","4.9","87","No. 258號, Section 2, Linong St",,"Beitou District, Taipei City","TW","https://www.facebook.com/profile.php?id=100093549814049&mibextid=LQQJ4d",,"Cafe","https://www.google.com/maps/search/?api=1&query=%E6%9C%89%E6%99%82Cafe-Between%20times&query_place_id=ChIJPxvNErmvQjQRPkuNrr72PNQ"
"翁記食堂","4.8","20","No. 339號, Datong St",,"Beitou District, Taipei City","TW","https://chop-bar-1876.business.site/?utm_source=gmb&utm_medium=referral","+886 979 016 583","Chop bar","https://www.google.com/maps/search/?api=1&query=%E7%BF%81%E8%A8%98%E9%A3%9F%E5%A0%82&query_place_id=ChIJcUEPYsavQjQRp9kqfV4FZqA"
"Poffertjes Cafe","4.2","2962","No. 18號, Lane 52, Chang'an W Rd",,"Datong District, Taipei City","TW","https://www.facebook.com/pages/%E8%8D%B7%E8%98%AD%E5%B0%8F%E9%AC%86%E9%A4%85/183367918383777?ref=hl","+886 2 2552 3252","Pancake restaurant","https://www.google.com/maps/search/?api=1&query=Poffertjes%20Cafe&query_place_id=ChIJgYYQ1m2pQjQRC3kF1MNEAdM"
"Nearby Cafe 附近咖啡","4.5","361","No. 4-1號, Alley 3, Lane 78, Chang'an W Rd",,"Datong District, Taipei City","TW","https://www.facebook.com/Nearbycafe/?locale=zh_TW","+886 2 2550 0335","Coffee shop","https://www.google.com/maps/search/?api=1&query=Nearby%20Cafe%20%E9%99%84%E8%BF%91%E5%92%96%E5%95%A1&query_place_id=ChIJUX-lgjWpQjQRO1OC4UqI2iQ"
"Vagabond Cafe 流浪觀點","4.7","163","No. 13, Fushou St",,"Shilin District, Taipei City","TW",,"+886 2 2831 1195","Coffee store","https://www.google.com/maps/search/?api=1&query=Vagabond%20Cafe%20%E6%B5%81%E6%B5%AA%E8%A7%80%E9%BB%9E&query_place_id=ChIJX3XyujOvQjQRrn7vlTQmGWY"
"Rhyme Café 韻咖啡","4.8","155","No. 52號, Daxing St",,"Beitou District, Taipei City","TW","https://www.instagram.com/rhyme_cafe","+886 2 2895 6663","Brunch restaurant","https://www.google.com/maps/search/?api=1&query=Rhyme%20Caf%C3%A9%20%E9%9F%BB%E5%92%96%E5%95%A1&query_place_id=ChIJ_encAUCvQjQR7vWIhnfZTuk"
"McCafé 咖啡-台北中央店","4.6","67","Section 4, Zhongyang N Rd, 534號1樓",,"Beitou District, Taipei City","TW","https://www.mcdonalds.com/tw/zh-tw/full-menu/mccafe.html","+886 2 2895 2638","Coffee shop","https://www.google.com/maps/search/?api=1&query=McCaf%C3%A9%20%E5%92%96%E5%95%A1-%E5%8F%B0%E5%8C%97%E4%B8%AD%E5%A4%AE%E5%BA%97&query_place_id=ChIJNcsyOYSvQjQRRxPAZBJwVKo"
"日嚐豆花","4.8","99","Zhonghe St, 386號1樓",,"Beitou District, Taipei City","TW",,"+886 963 258 026","Restaurant","https://www.google.com/maps/search/?api=1&query=%E6%97%A5%E5%9A%90%E8%B1%86%E8%8A%B1&query_place_id=ChIJW32jLIqvQjQRcM9F2C9xPNM"
"M One Cafe Daan","4.4","3797","No. 6-1, Lane 27, Section 4, Ren'ai Rd",,"Da’an District, Taipei City","TW","https://m.facebook.com/MOneCafe/","+886 2 8773 2136","New American restaurant","https://www.google.com/maps/search/?api=1&query=M%20One%20Cafe%20Daan&query_place_id=ChIJNfVW_dCrQjQRg9C_qEES1Ak"
"CAFE ACME｜Shihlin 士林","4.4","448","No. 203號, Fulin Rd",,"Shilin District, Taipei City","TW","http://www.acmetaipei.com/","+886 2 6617 0707","Cafe","https://www.google.com/maps/search/?api=1&query=CAFE%20ACME%EF%BD%9CShihlin%20%E5%A3%AB%E6%9E%97&query_place_id=ChIJN_NxPkWvQjQR1u2UC7jT6S0"
"McCafé 咖啡-昆明店","4.9","25","No. 92之4號, Kunming St",,"Wanhua District, Taipei City","TW","https://www.mcdonalds.com/tw/zh-tw/full-menu/mccafe.html","+886 2 2314 6526","Coffee shop","https://www.google.com/maps/search/?api=1&query=McCaf%C3%A9%20%E5%92%96%E5%95%A1-%E6%98%86%E6%98%8E%E5%BA%97&query_place_id=ChIJa9pydLSpQjQRIxvJx2604vI"
"山边咖啡 Brae Café","4.7","704","No. 110-1號, Wenquan Rd",,"Beitou District, Taipei City","TW",,,"Cafe","https://www.google.com/maps/search/?api=1&query=%E5%B1%B1%E8%BE%B9%E5%92%96%E5%95%A1%20Brae%20Caf%C3%A9&query_place_id=ChIJk7jbcxKvQjQR-HWxzlgfSLY"
"Bonita廚房","4.2","1082","Alley 3, Lane 515, Section 4, Zhongyang N Rd, 1號1樓",,"Beitou District, Taipei City","TW",,"+886 2 2891 8883","Small plates restaurant","https://www.google.com/maps/search/?api=1&query=Bonita%E5%BB%9A%E6%88%BF&query_place_id=ChIJbe2hrQyvQjQRRntz_54mX3U"
"YOLO's Cafe","4.7","385","No. 16號, Lane 164, Fuhua Rd",,"Shilin District, Taipei City","TW","https://www.mplusapp.com/gmb/yoloscafe/","+886 2 2836 8998","Cafe","https://www.google.com/maps/search/?api=1&query=YOLO's%20Cafe&query_place_id=ChIJRdFrJpeuQjQRiyGIizz5UVY"
"金仙魚丸店","4","181","No. 466號, Zhonghe St",,"Beitou District, Taipei City","TW",,"+886 2 2894 9296","Mandarin restaurant","https://www.google.com/maps/search/?api=1&query=%E9%87%91%E4%BB%99%E9%AD%9A%E4%B8%B8%E5%BA%97&query_place_id=ChIJn2D1uEuuQjQRUfU_LZ34HoI"
"Remember Me Café","4.5","2832","No. 16號, Alley 4, Lane 133, Section 4, Nanjing E Rd",,"Songshan District, Taipei City","TW","https://www.facebook.com/remembermecafe/","+886 2 2547 1517","Cafe","https://www.google.com/maps/search/?api=1&query=Remember%20Me%20Caf%C3%A9&query_place_id=ChIJ8TuKLOqrQjQRSrGsTe4tu2o"
